TECHNOSAT               
1 42829U 17042E   26094.03613089  .00006858  00000+0  49210-3 0  9995
2 42829  97.4201 254.5758 0017336 353.3194   6.7798 15.04510511475550
FLYING LAPTOP           
1 42831U 17042G   26094.31711067  .00003613  00000+0  28863-3 0  9991
2 42831  97.4360 252.8659 0019782  15.9149 344.2693 15.00697073475377
HAWK-A                  
1 43765U 18099H   26094.09576984  .00015182  00000+0  62401-3 0  9993
2 43765  97.3996 147.3207 0035682 183.6663 176.4318 15.23673910401812
HAWK-B                  
1 43794U 18099AN  26094.09630387  .00013725  00000+0  59629-3 0  9992
2 43794  97.4043 146.8867 0032247 200.8362 159.1562 15.21935339401763
HAWK-C                  
1 43799U 18099AT  26094.10419963  .00017408  00000+0  64377-3 0  9992
2 43799  97.3970 147.8880 0041616 185.3618 174.7181 15.26931731402604
SALSAT                  
1 46495U 20068K   26093.94381268  .00015678  00000+0  56347-3 0  9999
2 46495  97.8863  92.5537 0009436 192.6370 167.4633 15.28700775304012
HAWK-2C                 
1 47502U 21006CT  26094.12448441  .00012834  00000+0  39487-3 0  9997
2 47502  97.2357 139.9296 0008883 105.1785 255.0441 15.33752140288141
HAWK-2A                 
1 47505U 21006CW  26094.12761804  .00012832  00000+0  39470-3 0  9991
2 47505  97.2401 140.5668 0008471 108.0519 252.1648 15.33764253288140
HAWK-2B                 
1 47508U 21006CZ  26094.12474036  .00015063  00000+0  46283-3 0  9991
2 47508  97.2276 139.0187 0009060 106.1503 254.0738 15.33756035288149
HAWK-3B                 
1 48931U 21059BE  26094.10094622  .00064111  00000+0  68237-3 0  9998
2 48931  97.6709 284.1279 0004960 232.0499 128.0311 15.63796070266257
HAWK-3C                 
1 48948U 21059BX  26094.10062510  .00063592  00000+0  67684-3 0  9994
2 48948  97.6847 289.6783 0005232 233.2852 126.7926 15.63796627266252
HAWK-3A                 
1 48957U 21059CG  26094.10051414  .00062128  00000+0  66163-3 0  9990
2 48957  97.6784 286.9446 0004944 232.9977 127.0829 15.63790042266252
HAWK-5C                 
1 52754U 22057Y   26093.93279367  .00031555  00000+0  58916-3 0  9995
2 52754  97.6497 249.0211 0004331 347.0267  13.0871 15.48712127214843
HAWK-5B                 
1 52756U 22057AA  26093.93262033  .00029881  00000+0  55812-3 0  9990
2 52756  97.6501 247.3621 0004199 340.6469  19.4621 15.48712141214841
HAWK-5A                 
1 52757U 22057AB  26093.93242344  .00030887  00000+0  57667-3 0  9992
2 52757  97.6501 248.1962 0004677 343.4028  16.7069 15.48715500214840
HAWK-6B                 
1 55324U 23011A   26094.26229082  .00009982  00000+0  43257-3 0  9999
2 55324  40.4994  63.0280 0004579 244.6308 115.4027 15.22256551176572
HAWK-6C                 
1 55326U 23011C   26094.19608743  .00010350  00000+0  44820-3 0  9996
2 55326  40.4988  60.2611 0004440 234.6469 125.3925 15.22257082176575
