[{"OBJECT_NAME":"TECHNOSAT","OBJECT_ID":"2017-042E","EPOCH":"2026-04-04T00:52:01.708896","MEAN_MOTION":15.04510511,"ECCENTRICITY":0.00173361,"INCLINATION":97.4201,"RA_OF_ASC_NODE":254.5758,"ARG_OF_PERICENTER":353.3194,"MEAN_ANOMALY":6.7798,"EPHEMERIS_TYPE":0,"CLASSIFICATION_TYPE":"U","NORAD_CAT_ID":42829,"ELEMENT_SET_NO":999,"REV_AT_EPOCH":47555,"BSTAR":0.00049210436,"MEAN_MOTION_DOT":6.858e-5,"MEAN_MOTION_DDOT":0},{"OBJECT_NAME":"FLYING LAPTOP","OBJECT_ID":"2017-042G","EPOCH":"2026-04-04T07:36:38.361888","MEAN_MOTION":15.00697073,"ECCENTRICITY":0.00197822,"INCLINATION":97.436,"RA_OF_ASC_NODE":252.8659,"ARG_OF_PERICENTER":15.9149,"MEAN_ANOMALY":344.2693,"EPHEMERIS_TYPE":0,"CLASSIFICATION_TYPE":"U","NORAD_CAT_ID":42831,"ELEMENT_SET_NO":999,"REV_AT_EPOCH":47537,"BSTAR":0.00028863265,"MEAN_MOTION_DOT":3.613e-5,"MEAN_MOTION_DDOT":0},{"OBJECT_NAME":"HAWK-A","OBJECT_ID":"2018-099H","EPOCH":"2026-04-04T02:17:54.514176","MEAN_MOTION":15.2367391,"ECCENTRICITY":0.00356827,"INCLINATION":97.3996,"RA_OF_ASC_NODE":147.3207,"ARG_OF_PERICENTER":183.6663,"MEAN_ANOMALY":176.4318,"EPHEMERIS_TYPE":0,"CLASSIFICATION_TYPE":"U","NORAD_CAT_ID":43765,"ELEMENT_SET_NO":999,"REV_AT_EPOCH":40181,"BSTAR":0.00062401283,"MEAN_MOTION_DOT":0.00015182,"MEAN_MOTION_DDOT":0},{"OBJECT_NAME":"HAWK-B","OBJECT_ID":"2018-099AN","EPOCH":"2026-04-04T02:18:40.654368","MEAN_MOTION":15.21935339,"ECCENTRICITY":0.00322473,"INCLINATION":97.4043,"RA_OF_ASC_NODE":146.8867,"ARG_OF_PERICENTER":200.8362,"MEAN_ANOMALY":159.1562,"EPHEMERIS_TYPE":0,"CLASSIFICATION_TYPE":"U","NORAD_CAT_ID":43794,"ELEMENT_SET_NO":999,"REV_AT_EPOCH":40176,"BSTAR":0.00059628622,"MEAN_MOTION_DOT":0.00013725,"MEAN_MOTION_DDOT":0},{"OBJECT_NAME":"HAWK-C","OBJECT_ID":"2018-099AT","EPOCH":"2026-04-04T02:30:02.848032","MEAN_MOTION":15.26931731,"ECCENTRICITY":0.0041616,"INCLINATION":97.397,"RA_OF_ASC_NODE":147.888,"ARG_OF_PERICENTER":185.3618,"MEAN_ANOMALY":174.7181,"EPHEMERIS_TYPE":0,"CLASSIFICATION_TYPE":"U","NORAD_CAT_ID":43799,"ELEMENT_SET_NO":999,"REV_AT_EPOCH":40260,"BSTAR":0.00064376619,"MEAN_MOTION_DOT":0.00017408,"MEAN_MOTION_DDOT":0},{"OBJECT_NAME":"SALSAT","OBJECT_ID":"2020-068K","EPOCH":"2026-04-03T22:39:05.415552","MEAN_MOTION":15.28700775,"ECCENTRICITY":0.00094367,"INCLINATION":97.8863,"RA_OF_ASC_NODE":92.5537,"ARG_OF_PERICENTER":192.637,"MEAN_ANOMALY":167.4633,"EPHEMERIS_TYPE":0,"CLASSIFICATION_TYPE":"U","NORAD_CAT_ID":46495,"ELEMENT_SET_NO":999,"REV_AT_EPOCH":30401,"BSTAR":0.00056346593,"MEAN_MOTION_DOT":0.00015678,"MEAN_MOTION_DDOT":0},{"OBJECT_NAME":"HAWK-2C","OBJECT_ID":"2021-006CT","EPOCH":"2026-04-04T02:59:15.453024","MEAN_MOTION":15.3375214,"ECCENTRICITY":0.00088833,"INCLINATION":97.2357,"RA_OF_ASC_NODE":139.9296,"ARG_OF_PERICENTER":105.1785,"MEAN_ANOMALY":255.0441,"EPHEMERIS_TYPE":0,"CLASSIFICATION_TYPE":"U","NORAD_CAT_ID":47502,"ELEMENT_SET_NO":999,"REV_AT_EPOCH":28814,"BSTAR":0.00039486624,"MEAN_MOTION_DOT":0.00012834,"MEAN_MOTION_DDOT":0},{"OBJECT_NAME":"HAWK-2A","OBJECT_ID":"2021-006CW","EPOCH":"2026-04-04T03:03:46.198656","MEAN_MOTION":15.33764253,"ECCENTRICITY":0.00084715,"INCLINATION":97.2401,"RA_OF_ASC_NODE":140.5668,"ARG_OF_PERICENTER":108.0519,"MEAN_ANOMALY":252.1648,"EPHEMERIS_TYPE":0,"CLASSIFICATION_TYPE":"U","NORAD_CAT_ID":47505,"ELEMENT_SET_NO":999,"REV_AT_EPOCH":28814,"BSTAR":0.0003946975,"MEAN_MOTION_DOT":0.00012832,"MEAN_MOTION_DDOT":0},{"OBJECT_NAME":"HAWK-2B","OBJECT_ID":"2021-006CZ","EPOCH":"2026-04-04T02:59:37.567104","MEAN_MOTION":15.33756035,"ECCENTRICITY":0.00090605,"INCLINATION":97.2276,"RA_OF_ASC_NODE":139.0187,"ARG_OF_PERICENTER":106.1503,"MEAN_ANOMALY":254.0738,"EPHEMERIS_TYPE":0,"CLASSIFICATION_TYPE":"U","NORAD_CAT_ID":47508,"ELEMENT_SET_NO":999,"REV_AT_EPOCH":28814,"BSTAR":0.00046282979,"MEAN_MOTION_DOT":0.00015063,"MEAN_MOTION_DDOT":0},{"OBJECT_NAME":"HAWK-3B","OBJECT_ID":"2021-059BE","EPOCH":"2026-04-04T02:25:21.753408","MEAN_MOTION":15.6379607,"ECCENTRICITY":0.00049607,"INCLINATION":97.6709,"RA_OF_ASC_NODE":284.1279,"ARG_OF_PERICENTER":232.0499,"MEAN_ANOMALY":128.0311,"EPHEMERIS_TYPE":0,"CLASSIFICATION_TYPE":"U","NORAD_CAT_ID":48931,"ELEMENT_SET_NO":999,"REV_AT_EPOCH":26625,"BSTAR":0.00068237127,"MEAN_MOTION_DOT":0.00064111,"MEAN_MOTION_DDOT":0},{"OBJECT_NAME":"HAWK-3C","OBJECT_ID":"2021-059BX","EPOCH":"2026-04-04T02:24:54.008640","MEAN_MOTION":15.63796627,"ECCENTRICITY":0.00052328,"INCLINATION":97.6847,"RA_OF_ASC_NODE":289.6783,"ARG_OF_PERICENTER":233.2852,"MEAN_ANOMALY":126.7926,"EPHEMERIS_TYPE":0,"CLASSIFICATION_TYPE":"U","NORAD_CAT_ID":48948,"ELEMENT_SET_NO":999,"REV_AT_EPOCH":26625,"BSTAR":0.00067684174,"MEAN_MOTION_DOT":0.00063592,"MEAN_MOTION_DDOT":0},{"OBJECT_NAME":"HAWK-3A","OBJECT_ID":"2021-059CG","EPOCH":"2026-04-04T02:24:44.421696","MEAN_MOTION":15.63790042,"ECCENTRICITY":0.00049448,"INCLINATION":97.6784,"RA_OF_ASC_NODE":286.9446,"ARG_OF_PERICENTER":232.9977,"MEAN_ANOMALY":127.0829,"EPHEMERIS_TYPE":0,"CLASSIFICATION_TYPE":"U","NORAD_CAT_ID":48957,"ELEMENT_SET_NO":999,"REV_AT_EPOCH":26625,"BSTAR":0.0006616306,"MEAN_MOTION_DOT":0.00062128,"MEAN_MOTION_DDOT":0},{"OBJECT_NAME":"HAWK-5C","OBJECT_ID":"2022-057Y","EPOCH":"2026-04-03T22:23:13.373088","MEAN_MOTION":15.48712127,"ECCENTRICITY":0.00043312,"INCLINATION":97.6497,"RA_OF_ASC_NODE":249.0211,"ARG_OF_PERICENTER":347.0267,"MEAN_ANOMALY":13.0871,"EPHEMERIS_TYPE":0,"CLASSIFICATION_TYPE":"U","NORAD_CAT_ID":52754,"ELEMENT_SET_NO":999,"REV_AT_EPOCH":21484,"BSTAR":0.0005891567,"MEAN_MOTION_DOT":0.00031555,"MEAN_MOTION_DDOT":0},{"OBJECT_NAME":"HAWK-5B","OBJECT_ID":"2022-057AA","EPOCH":"2026-04-03T22:22:58.396512","MEAN_MOTION":15.48712141,"ECCENTRICITY":0.00041996,"INCLINATION":97.6501,"RA_OF_ASC_NODE":247.3621,"ARG_OF_PERICENTER":340.6469,"MEAN_ANOMALY":19.4621,"EPHEMERIS_TYPE":0,"CLASSIFICATION_TYPE":"U","NORAD_CAT_ID":52756,"ELEMENT_SET_NO":999,"REV_AT_EPOCH":21484,"BSTAR":0.00055812151,"MEAN_MOTION_DOT":0.00029881,"MEAN_MOTION_DDOT":0},{"OBJECT_NAME":"HAWK-5A","OBJECT_ID":"2022-057AB","EPOCH":"2026-04-03T22:22:41.385216","MEAN_MOTION":15.487155,"ECCENTRICITY":0.00046773,"INCLINATION":97.6501,"RA_OF_ASC_NODE":248.1962,"ARG_OF_PERICENTER":343.4028,"MEAN_ANOMALY":16.7069,"EPHEMERIS_TYPE":0,"CLASSIFICATION_TYPE":"U","NORAD_CAT_ID":52757,"ELEMENT_SET_NO":999,"REV_AT_EPOCH":21484,"BSTAR":0.00057666868,"MEAN_MOTION_DOT":0.00030887,"MEAN_MOTION_DDOT":0},{"OBJECT_NAME":"HAWK-6B","OBJECT_ID":"2023-011A","EPOCH":"2026-04-04T06:17:41.926848","MEAN_MOTION":15.22256551,"ECCENTRICITY":0.00045793,"INCLINATION":40.4994,"RA_OF_ASC_NODE":63.028,"ARG_OF_PERICENTER":244.6308,"MEAN_ANOMALY":115.4027,"EPHEMERIS_TYPE":0,"CLASSIFICATION_TYPE":"U","NORAD_CAT_ID":55324,"ELEMENT_SET_NO":999,"REV_AT_EPOCH":17657,"BSTAR":0.0004325735,"MEAN_MOTION_DOT":9.982e-5,"MEAN_MOTION_DDOT":0},{"OBJECT_NAME":"HAWK-6C","OBJECT_ID":"2023-011C","EPOCH":"2026-04-04T04:42:21.953952","MEAN_MOTION":15.22257082,"ECCENTRICITY":0.00044409,"INCLINATION":40.4988,"RA_OF_ASC_NODE":60.2611,"ARG_OF_PERICENTER":234.6469,"MEAN_ANOMALY":125.3925,"EPHEMERIS_TYPE":0,"CLASSIFICATION_TYPE":"U","NORAD_CAT_ID":55326,"ELEMENT_SET_NO":999,"REV_AT_EPOCH":17657,"BSTAR":0.00044820344,"MEAN_MOTION_DOT":0.0001035,"MEAN_MOTION_DDOT":0}]
